{"fetched_at":"2026-03-29T02:12:04Z","count":15717,"tles":[{"name":"NAVSTAR 49 (USA 154)","line1":"1 26605U 00071A   26087.61486991  .00000048  00000+0  00000+0 0  9994","line2":"2 26605  55.5786  98.1349 0173841 265.9221  84.1981  2.00569338185890","category":"GPS"}]}